[{"OBJECT_NAME":"STARLINK-5501","OBJECT_ID":"2023-021W","EPOCH":"2026-03-09T17:03:16.033536","MEAN_MOTION":14.98328021,"ECCENTRICITY":0.00030894,"INCLINATION":70.0012,"RA_OF_ASC_NODE":184.4395,"ARG_OF_PERICENTER":264.3482,"MEAN_ANOMALY":95.7325,"EPHEMERIS_TYPE":0,"CLASSIFICATION_TYPE":"U","NORAD_CAT_ID":55648,"ELEMENT_SET_NO":999,"REV_AT_EPOCH":16879,"BSTAR":-4.4075747e-5,"MEAN_MOTION_DOT":-6.19e-6,"MEAN_MOTION_DDOT":0},{"OBJECT_NAME":"CZ-6A DEB","OBJECT_ID":"2024-140RH","EPOCH":"2026-03-09T12:32:13.567200","MEAN_MOTION":15.23024459,"ECCENTRICITY":0.01073082,"INCLINATION":88.6757,"RA_OF_ASC_NODE":253.1302,"ARG_OF_PERICENTER":74.0491,"MEAN_ANOMALY":287.2547,"EPHEMERIS_TYPE":0,"CLASSIFICATION_TYPE":"U","NORAD_CAT_ID":61163,"ELEMENT_SET_NO":999,"REV_AT_EPOCH":8457,"BSTAR":0.0019108924,"MEAN_MOTION_DOT":0.00053105,"MEAN_MOTION_DDOT":0}]
